$$SOE
2460721.500000000, A.D. 2025-Feb-15 00:00:00.0000, 1.123722615763489E+07, 3.323450155429462E+08, 4.738846605029367E+07,
2460728.500000000, A.D. 2025-Feb-22 00:00:00.0000, -9.783007322774378E+05, 3.306647010536392E+08, 4.917624964127326E+07,
2460735.500000000, A.D. 2025-Mar-01 00:00:00.0000, -1.319246711045493E+07, 3.285549349196526E+08, 5.090010897626509E+07,
2460742.500000000, A.D. 2025-Mar-08 00:00:00.0000, -2.538915721995234E+07, 3.260123977313491E+08, 5.255686606640393E+07,
2460749.500000000, A.D. 2025-Mar-15 00:00:00.0000, -3.755182703668433E+07, 3.230344205965866E+08, 5.414336802089180E+07,
2460756.500000000, A.D. 2025-Mar-22 00:00:00.0000, -4.966353059981030E+07, 3.196190262794167E+08, 5.565649733185409E+07,
2460763.500000000, A.D. 2025-Mar-29 00:00:00.0000, -6.170694881895152E+07, 3.157649676844258E+08, 5.709318243235807E+07,
2460770.500000000, A.D. 2025-Apr-05 00:00:00.0000, -7.366442057041351E+07, 3.114717664674063E+08, 5.845040872390568E+07,
2460777.500000000, A.D. 2025-Apr-12 00:00:00.0000, -8.551797810294916E+07, 3.067397514845658E+08, 5.972523021653573E+07,
2460784.500000000, A.D. 2025-Apr-19 00:00:00.0000, -9.724938699882762E+07, 3.015700957718419E+08, 6.091478167274453E+07,
2460791.500000000, A.D. 2025-Apr-26 00:00:00.0000, -1.088401904351482E+08, 2.959648514018788E+08, 6.201629114944841E+07,
2460798.500000000, A.D. 2025-May-03 00:00:00.0000, -1.202717575982889E+08, 2.899269817704906E+08, 6.302709285401867E+07,
2460805.500000000, A.D. 2025-May-10 00:00:00.0000, -1.315253361341961E+08, 2.834603908402867E+08, 6.394464022620305E+07,
2460812.500000000, A.D. 2025-May-17 00:00:00.0000, -1.425821084494605E+08, 2.765699488120577E+08, 6.476651914193705E+07,
2460819.500000000, A.D. 2025-May-24 00:00:00.0000, -1.534232514776718E+08, 2.692615136811510E+08, 6.549046111082020E+07,
2460826.500000000, A.D. 2025-May-31 00:00:00.0000, -1.640299992161830E+08, 2.615419485099581E+08, 6.611435633682927E+07,
2460833.500000000, A.D. 2025-Jun-07 00:00:00.0000, -1.743837080921702E+08, 2.534191351608719E+08, 6.663626665214433E+07,
2460840.500000000, A.D. 2025-Jun-14 00:00:00.0000, -1.844659271142581E+08, 2.449019833968258E+08, 6.705443835577160E+07,
2460847.500000000, A.D. 2025-Jun-21 00:00:00.0000, -1.942584711081314E+08, 2.360004316879148E+08, 6.736731443950436E+07,
2460854.500000000, A.D. 2025-Jun-28 00:00:00.0000, -2.037434933615776E+08, 2.267254411321712E+08, 6.757354591324048E+07,
2460861.500000000, A.D. 2025-Jul-05 00:00:00.0000, -2.129035586075714E+08, 2.170889843611493E+08, 6.767200240463011E+07,
2460868.500000000, A.D. 2025-Jul-12 00:00:00.0000, -2.217217168905068E+08, 2.071040284183725E+08, 6.766178193900850E+07,
2460875.500000000, A.D. 2025-Jul-19 00:00:00.0000, -2.301815774316647E+08, 1.967845108990698E+08, 6.754221969920667E+07,
2460882.500000000, A.D. 2025-Jul-26 00:00:00.0000, -2.382673815600277E+08, 1.861453092406782E+08, 6.731289561247356E+07,
2460889.500000000, A.D. 2025-Aug-02 00:00:00.0000, -2.459640739005294E+08, 1.752022032241702E+08, 6.697364064214823E+07,
2460896.500000000, A.D. 2025-Aug-09 00:00:00.0000, -2.532573710470014E+08, 1.639718308061009E+08, 6.652454167581914E+07,
2460903.500000000, A.D. 2025-Aug-16 00:00:00.0000, -2.601338269003608E+08, 1.524716374501282E+08, 6.596594490844713E+07,
2460910.500000000, A.D. 2025-Aug-23 00:00:00.0000, -2.665808936579318E+08, 1.407198193030763E+08, 6.529845762349423E+07,
2460917.500000000, A.D. 2025-Aug-30 00:00:00.0000, -2.725869774390251E+08, 1.287352613511600E+08, 6.452294834848766E+07,
2460924.500000000, A.D. 2025-Sep-06 00:00:00.0000, -2.781414893312562E+08, 1.165374720655211E+08, 6.364054556694816E+07,
2460931.500000000, A.D. 2025-Sep-13 00:00:00.0000, -2.832348929643654E+08, 1.041465126467592E+08, 6.265263493176757E+07,
2460938.500000000, A.D. 2025-Sep-20 00:00:00.0000, -2.878587448450973E+08, 9.158291989317584E+07, 6.156085456305817E+07,
2460945.500000000, A.D. 2025-Sep-27 00:00:00.0000, -2.920057259744511E+08, 7.886762652423662E+07, 6.036708862378071E+07,
2460952.500000000, A.D. 2025-Oct-04 00:00:00.0000, -2.956696664497585E+08, 6.602188025593840E+07, 5.907345946257426E+07,
2460959.500000000, A.D. 2025-Oct-11 00:00:00.0000, -2.988455632231656E+08, 5.306716148345654E+07, 5.768231836724765E+07,
2460966.500000000, A.D. 2025-Oct-18 00:00:00.0000, -3.015295906283553E+08, 4.002510011688840E+07, 5.619623498511439E+07,
2460973.500000000, A.D. 2025-Oct-25 00:00:00.0000, -3.037191035295903E+08, 2.691739240104319E+07, 5.461798551748991E+07,
2460980.500000000, A.D. 2025-Nov-01 00:00:00.0000, -3.054126331445218E+08, 1.376571853910807E+07, 5.295053981736477E+07,
2460987.500000000, A.D. 2025-Nov-08 00:00:00.0000, -3.066098756893625E+08, 5.916618591420017E+05, 5.119704752551925E+07,
2460994.500000000, A.D. 2025-Nov-15 00:00:00.0000, -3.073116739738148E+08, -1.258336981724062E+07, 4.936082337736472E+07,
2461001.500000000, A.D. 2025-Nov-22 00:00:00.0000, -3.075199919125072E+08, -2.573821972757202E+07, 4.744533182268617E+07,
2461008.500000000, A.D. 2025-Nov-29 00:00:00.0000, -3.072378825617522E+08, -3.885205291317586E+07, 4.545417123347874E+07,
2461015.500000000, A.D. 2025-Dec-06 00:00:00.0000, -3.064694524817307E+08, -5.190442176274904E+07, 4.339105806615761E+07,
2461022.500000000, A.D. 2025-Dec-13 00:00:00.0000, -3.052198225630175E+08, -6.487532927062314E+07, 4.125981082612753E+07,
2461029.500000000, A.D. 2025-Dec-20 00:00:00.0000, -3.034950824280823E+08, -7.774528861088988E+07, 3.906433375258162E+07,
2461036.500000000, A.D. 2025-Dec-27 00:00:00.0000, -3.013022400960971E+08, -9.049537614453904E+07, 3.680860067692821E+07,
2461043.500000000, A.D. 2026-Jan-03 00:00:00.0000, -2.986491689917296E+08, -1.031072782759256E+08, 3.449663927004734E+07,
2461050.500000000, A.D. 2026-Jan-10 00:00:00.0000, -2.955445528186463E+08, -1.155633327262692E+08, 3.213251573447817E+07,
2461057.500000000, A.D. 2026-Jan-17 00:00:00.0000, -2.919978286916051E+08, -1.278465642795727E+08, 2.972032002282137E+07,
2461064.500000000, A.D. 2026-Jan-24 00:00:00.0000, -2.880191290538087E+08, -1.399407150110794E+08, 2.726415167294615E+07,
2461071.500000000, A.D. 2026-Jan-31 00:00:00.0000, -2.836192229297612E+08, -1.518302691043867E+08, 2.476810633814196E+07,
2461078.500000000, A.D. 2026-Feb-07 00:00:00.0000, -2.788094569900389E+08, -1.635004724727636E+08, 2.223626306810365E+07,
2461085.500000000, A.D. 2026-Feb-14 00:00:00.0000, -2.736016966722264E+08, -1.749373474092988E+08, 1.967267236819213E+07,
2461092.500000000, A.D. 2026-Feb-21 00:00:00.0000, -2.680082674225231E+08, -1.861277019406376E+08, 1.708134508663110E+07,
2461099.500000000, A.D. 2026-Feb-28 00:00:00.0000, -2.620418975457354E+08, -1.970591330168758E+08, 1.446624234819874E+07,
2461106.500000000, A.D. 2026-Mar-07 00:00:00.0000, -2.557156650748841E+08, -2.077200258021427E+08, 1.183126657630906E+07,
2461113.500000000, A.D. 2026-Mar-14 00:00:00.0000, -2.490429461909793E+08, -2.180995517358122E+08, 9.180253159783974E+06,
2461120.500000000, A.D. 2026-Mar-21 00:00:00.0000, -2.420373636698499E+08, -2.281876628146301E+08, 6.516962829423517E+06,
2461127.500000000, A.D. 2026-Mar-28 00:00:00.0000, -2.347127375749155E+08, -2.379750814170909E+08, 3.845074995581195E+06,
2461134.500000000, A.D. 2026-Apr-04 00:00:00.0000, -2.270830389602510E+08, -2.474532869846973E+08, 1.168181998184144E+06,
2461141.500000000, A.D. 2026-Apr-11 00:00:00.0000, -2.191623464270883E+08, -2.566145002669297E+08, -1.510215816933438E+06,
2461148.500000000, A.D. 2026-Apr-18 00:00:00.0000, -2.109648054548317E+08, -2.654516654776148E+08, -4.186714247339129E+06,
2461155.500000000, A.D. 2026-Apr-25 00:00:00.0000, -2.025045905084016E+08, -2.739584306758531E+08, -6.858008652748302E+06,
2461162.500000000, A.D. 2026-May-02 00:00:00.0000, -1.937958699069530E+08, -2.821291267106006E+08, -9.520896692312896E+06,
2461169.500000000, A.D. 2026-May-09 00:00:00.0000, -1.848527733152943E+08, -2.899587450845814E+08, -1.217228044329503E+07,
2461176.500000000, A.D. 2026-May-16 00:00:00.0000, -1.756893614398850E+08, -2.974429148679182E+08, -1.480916797152534E+07,
2461183.500000000, A.D. 2026-May-23 00:00:00.0000, -1.663195978147634E+08, -3.045778778863097E+08, -1.742867432186046E+07,
2461190.500000000, A.D. 2026-May-30 00:00:00.0000, -1.567573246728546E+08, -3.113604620899888E+08, -2.002802175815707E+07,
2461197.500000000, A.D. 2026-Jun-06 00:00:00.0000, -1.470162431206513E+08, -3.177880565849028E+08, -2.260453953666346E+07,
2461204.500000000, A.D. 2026-Jun-13 00:00:00.0000, -1.371098938419569E+08, -3.238585883204487E+08, -2.515566357768889E+07,
2461211.500000000, A.D. 2026-Jun-20 00:00:00.0000, -1.270516387186586E+08, -3.295704976823863E+08, -2.767893579447472E+07,
2461218.500000000, A.D. 2026-Jun-27 00:00:00.0000, -1.168546449494142E+08, -3.349227134837163E+08, -3.017200299401377E+07,
2461225.500000000, A.D. 2026-Jul-04 00:00:00.0000, -1.065318715454707E+08, -3.399146282601245E+08, -3.263261545415713E+07,
2461232.500000000, A.D. 2026-Jul-11 00:00:00.0000, -9.609605782618140E+07, -3.445460741138110E+08, -3.505862524987777E+07,
2461239.500000000, A.D. 2026-Jul-18 00:00:00.0000, -8.555971369654429E+07, -3.488172991747383E+08, -3.744798437146039E+07,
2461246.500000000, A.D. 2026-Jul-25 00:00:00.0000, -7.493511155874489E+07, -3.527289447562672E+08, -3.979874267032842E+07,
2461253.500000000, A.D. 2026-Aug-01 00:00:00.0000, -6.423427968932332E+07, -3.562820233170822E+08, -4.210904567125235E+07,
2461260.500000000, A.D. 2026-Aug-08 00:00:00.0000, -5.346899674879339E+07, -3.594778973126210E+08, -4.437713230026768E+07,
2461267.500000000, A.D. 2026-Aug-15 00:00:00.0000, -4.265078689050689E+07, -3.623182585200078E+08, -4.660133255315138E+07,
2461274.500000000, A.D. 2026-Aug-22 00:00:00.0000, -3.179091611293497E+07, -3.648051066420654E+08, -4.878006495668551E+07,
2461281.500000000, A.D. 2026-Aug-29 00:00:00.0000, -2.090039203239020E+07, -3.669407285851265E+08, -5.091183374597618E+07,
2461288.500000000, A.D. 2026-Sep-05 00:00:00.0000, -9.989964838300655E+06, -3.687276812966717E+08, -5.299522620822193E+07,
$$EOE